{"type": "FeatureCollection", "features": [ {"type": "Feature", "properties": {"norad_id": 33841, "name": "COSMOS 2251 DEB", "group": "cosmos-2251-debris", "lat": 73.99935284577761, "lon": -12.171566616591562, "alt_km": 765.2631748493077, "timestamp": "2025-12-25T14:48:25.165359+00:00", "meta": {"OBJECT_NAME": "COSMOS 2251 DEB", "OBJECT_ID": "1993-036CJ", "EPOCH": "2025-12-25T03:01:24.157056", "MEAN_MOTION": 14.3787742, "ECCENTRICITY": 0.0021023, "INCLINATION": 74.0374, "RA_OF_ASC_NODE": 255.2374, "ARG_OF_PERICENTER": 333.3803, "MEAN_ANOMALY": 96.8837, "EPHEMERIS_TYPE": 0, "CLASSIFICATION_TYPE": "U", "NORAD_CAT_ID": 33841, "ELEMENT_SET_NO": 999, "REV_AT_EPOCH": 88292, "BSTAR": 0.00020984917, "MEAN_MOTION_DOT": 6.08e-06, "MEAN_MOTION_DDOT": 0}, "tle": {"line1": "1 33841U 93036CJ  25359.12597404  .00000608  00000+0  20985-3 0  9996", "line2": "2 33841  74.0374 255.2374 0021023 333.3803  96.8837 14.37877420882928"}}, "geometry": {"type": "Point", "coordinates": [-12.171566616591562, 73.99935284577761]}}, {"type": "Feature", "properties": {"norad_id": 33842, "name": "COSMOS 2251 DEB", "group": "cosmos-2251-debris", "lat": -27.977707162502025, "lon": 24.498517762891524, "alt_km": 755.6420370537999, "timestamp": "2025-12-25T14:48:25.165368+00:00", "meta": {"OBJECT_NAME": "COSMOS 2251 DEB", "OBJECT_ID": "1993-036CK", "EPOCH": "2025-12-24T22:51:30.450528", "MEAN_MOTION": 14.42719632, "ECCENTRICITY": 0.00475856, "INCLINATION": 74.0316, "RA_OF_ASC_NODE": 196.9828, "ARG_OF_PERICENTER": 301.8992, "MEAN_ANOMALY": 57.7539, "EPHEMERIS_TYPE": 0, "CLASSIFICATION_TYPE": "U", "NORAD_CAT_ID": 33842, "ELEMENT_SET_NO": 999, "REV_AT_EPOCH": 88513, "BSTAR": 0.00025425841, "MEAN_MOTION_DOT": 8.31e-06, "MEAN_MOTION_DDOT": 0}, "tle": {"line1": "1 33842U 93036CK  25358.95243577  .00000831  00000+0  25426-3 0  9999", "line2": "2 33842  74.0316 196.9828 0047585 301.8992  57.7539 14.42719632885137"}}, "geometry": {"type": "Point", "coordinates": [24.498517762891524, -27.977707162502025]}}, {"type": "Feature", "properties": {"norad_id": 33844, "name": "COSMOS 2251 DEB", "group": "cosmos-2251-debris", "lat": 73.1644926005983, "lon": 100.0191084934155, "alt_km": 744.9847576487209, "timestamp": "2025-12-25T14:48:25.165388+00:00", "meta": {"OBJECT_NAME": "COSMOS 2251 DEB", "OBJECT_ID": "1993-036CM", "EPOCH": "2025-12-25T04:40:13.141920", "MEAN_MOTION": 14.33740407, "ECCENTRICITY": 0.0047209, "INCLINATION": 74.0664, "RA_OF_ASC_NODE": 30.0399, "ARG_OF_PERICENTER": 48.0004, "MEAN_ANOMALY": 17.075, "EPHEMERIS_TYPE": 0, "CLASSIFICATION_TYPE": "U", "NORAD_CAT_ID": 33844, "ELEMENT_SET_NO": 999, "REV_AT_EPOCH": 87904, "BSTAR": 0.00034934975, "MEAN_MOTION_DOT": 9.57e-06, "MEAN_MOTION_DDOT": 0}, "tle": {"line1": "1 33844U 93036CM  25359.19459655  .00000957  00000+0  34935-3 0  9998", "line2": "2 33844  74.0664  30.0399 0047209  48.0004  17.0750 14.33740407879044"}}, "geometry": {"type": "Point", "coordinates": [100.0191084934155, 73.1644926005983]}}, {"type": "Feature", "properties": {"norad_id": 33848, "name": "COSMOS 2251 DEB", "group": "cosmos-2251-debris", "lat": 22.950255717552267, "lon": -19.35455130786552, "alt_km": 714.198845861717, "timestamp": "2025-12-25T14:48:25.165398+00:00", "meta": {"OBJECT_NAME": "COSMOS 2251 DEB", "OBJECT_ID": "1993-036CR", "EPOCH": "2025-12-25T01:45:01.750752", "MEAN_MOTION": 14.44146368, "ECCENTRICITY": 0.00419247, "INCLINATION": 74.0325, "RA_OF_ASC_NODE": 334.6935, "ARG_OF_PERICENTER": 26.9702, "MEAN_ANOMALY": 49.8909, "EPHEMERIS_TYPE": 0, "CLASSIFICATION_TYPE": "U", "NORAD_CAT_ID": 33848, "ELEMENT_SET_NO": 999, "REV_AT_EPOCH": 88009, "BSTAR": 0.0012493124, "MEAN_MOTION_DOT": 4.305e-05, "MEAN_MOTION_DDOT": 0}, "tle": {"line1": "1 33848U 93036CR  25359.07293693  .00004305  00000+0  12493-2 0  9992", "line2": "2 33848  74.0325 334.6935 0041924  26.9702  49.8909 14.44146368880093"}}, "geometry": {"type": "Point", "coordinates": [-19.35455130786552, 22.950255717552267]}}, {"type": "Feature", "properties": {"norad_id": 33892, "name": "COSMOS 2251 DEB", "group": "cosmos-2251-debris", "lat": 62.2675190551269, "lon": 112.13040702644585, "alt_km": 745.4023082837184, "timestamp": "2025-12-25T14:48:25.165407+00:00", "meta": {"OBJECT_NAME": "COSMOS 2251 DEB", "OBJECT_ID": "1993-036CV", "EPOCH": "2025-12-25T08:03:07.750368", "MEAN_MOTION": 14.23378094, "ECCENTRICITY": 0.01121125, "INCLINATION": 73.8025, "RA_OF_ASC_NODE": 79.0793, "ARG_OF_PERICENTER": 107.8295, "MEAN_ANOMALY": 318.5772, "EPHEMERIS_TYPE": 0, "CLASSIFICATION_TYPE": "U", "NORAD_CAT_ID": 33892, "ELEMENT_SET_NO": 999, "REV_AT_EPOCH": 87134, "BSTAR": 0.00060645931, "MEAN_MOTION_DOT": 1.442e-05, "MEAN_MOTION_DDOT": 0}, "tle": {"line1": "1 33892U 93036CV  25359.33550637  .00001442  00000+0  60646-3 0  9997", "line2": "2 33892  73.8025  79.0793 0112112 107.8295 318.5772 14.23378094871344"}}, "geometry": {"type": "Point", "coordinates": [112.13040702644585, 62.2675190551269]}}, {"type": "Feature", "properties": {"norad_id": 33894, "name": "COSMOS 2251 DEB", "group": "cosmos-2251-debris", "lat": -58.14991204232245, "lon": -58.81388670520859, "alt_km": 896.2014347478134, "timestamp": "2025-12-25T14:48:25.165417+00:00", "meta": {"OBJECT_NAME": "COSMOS 2251 DEB", "OBJECT_ID": "1993-036CX", "EPOCH": "2025-12-24T15:29:38.328864", "MEAN_MOTION": 13.21326885, "ECCENTRICITY": 0.05787082, "INCLINATION": 73.7663, "RA_OF_ASC_NODE": 330.6551, "ARG_OF_PERICENTER": 248.5012, "MEAN_ANOMALY": 105.345, "EPHEMERIS_TYPE": 0, "CLASSIFICATION_TYPE": "U", "NORAD_CAT_ID": 33894, "ELEMENT_SET_NO": 999, "REV_AT_EPOCH": 80865, "BSTAR": 0.00057502684, "MEAN_MOTION_DOT": 5.48e-06, "MEAN_MOTION_DDOT": 0}, "tle": {"line1": "1 33894U 93036CX  25358.64558251  .00000548  00000+0  57503-3 0  9996", "line2": "2 33894  73.7663 330.6551 0578708 248.5012 105.3450 13.21326885808655"}}, "geometry": {"type": "Point", "coordinates": [-58.81388670520859, -58.14991204232245]}}, {"type": "Feature", "properties": {"norad_id": 33896, "name": "COSMOS 2251 DEB", "group": "cosmos-2251-debris", "lat": -58.43182051250311, "lon": 104.99967406858559, "alt_km": 744.7864475568404, "timestamp": "2025-12-25T14:48:25.165427+00:00", "meta": {"OBJECT_NAME": "COSMOS 2251 DEB", "OBJECT_ID": "1993-036CZ", "EPOCH": "2025-12-25T02:07:16.154688", "MEAN_MOTION": 14.19066991, "ECCENTRICITY": 0.01271716, "INCLINATION": 73.7665, "RA_OF_ASC_NODE": 134.2641, "ARG_OF_PERICENTER": 307.9709, "MEAN_ANOMALY": 170.5079, "EPHEMERIS_TYPE": 0, "CLASSIFICATION_TYPE": "U", "NORAD_CAT_ID": 33896, "ELEMENT_SET_NO": 999, "REV_AT_EPOCH": 86915, "BSTAR": 0.00063165209, "MEAN_MOTION_DOT": 1.403e-05, "MEAN_MOTION_DDOT": 0}, "tle": {"line1": "1 33896U 93036CZ  25359.08838142  .00001403  00000+0  63165-3 0  9999", "line2": "2 33896  73.7665 134.2641 0127171 307.9709 170.5079 14.19066991869154"}}, "geometry": {"type": "Point", "coordinates": [104.99967406858559, -58.43182051250311]}}, {"type": "Feature", "properties": {"norad_id": 33899, "name": "COSMOS 2251 DEB", "group": "cosmos-2251-debris", "lat": 64.00783873828792, "lon": -154.77561903164525, "alt_km": 643.351304101935, "timestamp": "2025-12-25T14:48:25.165436+00:00", "meta": {"OBJECT_NAME": "COSMOS 2251 DEB", "OBJECT_ID": "1993-036DC", "EPOCH": "2025-12-25T04:34:52.061376", "MEAN_MOTION": 14.61291008, "ECCENTRICITY": 0.00559701, "INCLINATION": 74.0532, "RA_OF_ASC_NODE": 61.9432, "ARG_OF_PERICENTER": 120.9342, "MEAN_ANOMALY": 269.4, "EPHEMERIS_TYPE": 0, "CLASSIFICATION_TYPE": "U", "NORAD_CAT_ID": 33899, "ELEMENT_SET_NO": 999, "REV_AT_EPOCH": 89021, "BSTAR": 0.00082401732, "MEAN_MOTION_DOT": 4.131e-05, "MEAN_MOTION_DDOT": 0}, "tle": {"line1": "1 33899U 93036DC  25359.19088034  .00004131  00000+0  82402-3 0  9997", "line2": "2 33899  74.0532  61.9432 0055970 120.9342 269.4000 14.61291008890210"}}, "geometry": {"type": "Point", "coordinates": [-154.77561903164525, 64.00783873828792]}}, {"type": "Feature", "properties": {"norad_id": 33900, "name": "COSMOS 2251 DEB", "group": "cosmos-2251-debris", "lat": 12.077564710171684, "lon": -21.1575672317701, "alt_km": 710.8942745789964, "timestamp": "2025-12-25T14:48:25.165445+00:00", "meta": {"OBJECT_NAME": "COSMOS 2251 DEB", "OBJECT_ID": "1993-036DD", "EPOCH": "2025-12-25T06:48:41.153760", "MEAN_MOTION": 14.58390641, "ECCENTRICITY": 0.00463273, "INCLINATION": 74.0196, "RA_OF_ASC_NODE": 335.9615, "ARG_OF_PERICENTER": 124.3427, "MEAN_ANOMALY": 300.4555, "EPHEMERIS_TYPE": 0, "CLASSIFICATION_TYPE": "U", "NORAD_CAT_ID": 33900, "ELEMENT_SET_NO": 999, "REV_AT_EPOCH": 89219, "BSTAR": 0.00043700215, "MEAN_MOTION_DOT": 2.025e-05, "MEAN_MOTION_DDOT": 0}, "tle": {"line1": "1 33900U 93036DD  25359.28380965  .00002025  00000+0  43700-3 0  9996", "line2": "2 33900  74.0196 335.9615 0046327 124.3427 300.4555 14.58390641892193"}}, "geometry": {"type": "Point", "coordinates": [-21.1575672317701, 12.077564710171684]}}, {"type": "Feature", "properties": {"norad_id": 33901, "name": "COSMOS 2251 DEB", "group": "cosmos-2251-debris", "lat": 8.158752313605842, "lon": -160.38168022223857, "alt_km": 496.4297616326039, "timestamp": "2025-12-25T14:48:25.165454+00:00", "meta": {"OBJECT_NAME": "COSMOS 2251 DEB", "OBJECT_ID": "1993-036DE", "EPOCH": "2025-12-25T02:58:40.086048", "MEAN_MOTION": 15.1720149, "ECCENTRICITY": 0.00296824, "INCLINATION": 73.7737, "RA_OF_ASC_NODE": 23.056, "ARG_OF_PERICENTER": 152.953, "MEAN_ANOMALY": 207.3219, "EPHEMERIS_TYPE": 0, "CLASSIFICATION_TYPE": "U", "NORAD_CAT_ID": 33901, "ELEMENT_SET_NO": 999, "REV_AT_EPOCH": 89701, "BSTAR": 0.002723723, "MEAN_MOTION_DOT": 0.00055137, "MEAN_MOTION_DDOT": 0}, "tle": {"line1": "1 33901U 93036DE  25359.12407507  .00055137  00000+0  27237-2 0  9990", "line2": "2 33901  73.7737  23.0560 0029682 152.9530 207.3219 15.17201490897019"}}, "geometry": {"type": "Point", "coordinates": [-160.38168022223857, 8.158752313605842]}}]}